     3.02           N: GNSS NAV DATA    M: Mixed            RINEX VERSION / TYPE
RTKCONV 2.4.3 b32                       20190523 145418 UTC PGM / RUN BY / DATE 
log: C:\Users\lis4hi\Desktop\RINEX-reader-master\Data\1905  COMMENT             
format: u-blox                                              COMMENT             
GPSA   6.5193E-09  2.2352E-08 -5.9605E-08 -1.1921E-07       IONOSPHERIC CORR    
GPSB   8.6016E+04  9.8304E+04 -6.5536E+04 -5.2429E+05       IONOSPHERIC CORR    
GAL    0.0000E+00  0.0000E+00  0.0000E+00  0.0000E+00       IONOSPHERIC CORR    
GPUT  9.3132257462E-10-8.881784197E-16-458752 2054          TIME SYSTEM CORR    
GAUT  0.0000000000E+00 0.000000000E+00      0    0          TIME SYSTEM CORR    
BDUT  0.0000000000E+00 0.000000000E+00      0    0          TIME SYSTEM CORR    
    18                                                      LEAP SECONDS        
                                                            END OF HEADER       
C14 2019  5 23  8  0  0  .600959872827E-03 -.205480077398E-10  .758941520740E-18
      .110000000000E+02 -.907812500000E+01  .403159650361E-08 -.195822217106E+01
     -.355765223503E-06  .221641466487E-02  .824546441436E-05  .528261490250E+04
      .374400000000E+06  .162981450558E-07 -.151636135280E+01  .623986124992E-07
      .958511333753E+00  .191109375000E+03 -.195460603214E+01 -.669349309657E-08
      .564309220030E-09  .000000000000E+00  .698000000000E+03  .100000000000E+01
      .200000000000E+01  .000000000000E+00  .570000000000E-08  .130000000000E-08
      .375900000000E+06  .100000000000E+02
C 8 2019  5 23  8  0  0  .159960822202E-03  .339817063377E-11  .000000000000E+00
      .100000000000E+01 -.541781250000E+03  .456090426568E-09 -.263669461483E+01
     -.178520567715E-04  .389494071715E-02  .802567228675E-05  .649366218376E+04
      .374400000000E+06 -.133179128170E-06 -.298022151620E+01 -.791624188423E-07
      .102593425538E+01  .203281250000E+02 -.270282216200E+01 -.183757654244E-08
     -.542879755978E-10  .000000000000E+00  .698000000000E+03  .100000000000E+01
      .200000000000E+01  .000000000000E+00  .980000000000E-08 -.800000000000E-09
      .375900000000E+06  .000000000000E+00
C13 2019  5 23  8  0  0 -.730328029022E-03 -.241708875137E-10  .000000000000E+00
      .100000000000E+01 -.538984375000E+03  .596096258373E-09 -.292542618745E+01
     -.175228342414E-04  .321496790275E-02  .706315040588E-05  .649382858849E+04
      .374400000000E+06 -.216998159885E-06 -.299583424900E+01  .544823706150E-07
      .986715087935E+00  .336875000000E+02 -.285231512141E+01 -.189472177991E-08
     -.885751180806E-10  .000000000000E+00  .698000000000E+03  .100000000000E+01
      .200000000000E+01  .000000000000E+00 -.105000000000E-07  .250000000000E-08
      .375900000000E+06  .000000000000E+00
R14 2019  5 23  8 45  0  .392021611333E-04  .000000000000E+00  .376200000000E+06
      .107228632812E+05  .464000701904E-01  .000000000000E+00  .000000000000E+00
     -.447988818359E+04  .310745716095E+01  .186264514923E-08 -.700000000000E+01
      .227169711914E+05  .589639663696E+00 -.186264514923E-08  .000000000000E+00
R13 2019  5 23  8 45  0 -.239880755544E-04  .000000000000E+00  .376200000000E+06
      .945932666016E+04  .193574905396E+00  .000000000000E+00  .000000000000E+00
      .142113569336E+05  .259208869934E+01  .372529029846E-08 -.200000000000E+01
      .189301840820E+05 -.204100131989E+01  .000000000000E+00  .000000000000E+00
R23 2019  5 23  8 45  0  .229733064771E-03  .181898940355E-11  .376200000000E+06
      .125513857422E+05 -.185253143311E+01  .000000000000E+00  .000000000000E+00
      .152622592773E+05 -.122107791901E+01  .372529029846E-08  .300000000000E+01
      .161165551758E+05  .259795379639E+01  .000000000000E+00  .000000000000E+00
R 4 2019  5 23  8 45  0  .307335518301E-03  .909494701773E-12  .376200000000E+06
      .170550727539E+05  .109174251556E+01 -.931322574615E-09  .000000000000E+00
     -.161065170898E+05 -.838239669800E+00 -.931322574615E-09  .600000000000E+01
      .100229091797E+05 -.321318244934E+01 -.186264514923E-08  .000000000000E+00
R22 2019  5 23  8 45  0 -.205216929317E-04 -.909494701773E-12  .376200000000E+06
     -.653288671875E+04 -.279087829590E+01  .000000000000E+00  .000000000000E+00
      .832690917969E+04 -.152861881256E+01  .279396772385E-08 -.300000000000E+01
      .232150405273E+05 -.225297927856E+00  .000000000000E+00  .000000000000E+00
R 5 2019  5 23  8 45  0  .286418944597E-04  .909494701773E-12  .376200000000E+06
      .268173632812E+04  .246856021881E+01  .000000000000E+00  .000000000000E+00
     -.135120908203E+05 -.159462928772E+01  .000000000000E+00  .100000000000E+01
      .214801665039E+05 -.131392288208E+01 -.279396772385E-08  .000000000000E+00
R24 2019  5 23  8 45  0 -.180743634701E-03  .000000000000E+00  .376200000000E+06
      .218979707031E+05 -.769462585449E-01 -.931322574615E-09  .000000000000E+00
      .129643559570E+05 -.311238288879E+00  .186264514923E-08  .200000000000E+01
      .156331005859E+04  .359784412384E+01  .931322574615E-09  .000000000000E+00
R15 2019  5 23  8 45  0  .102112069726E-03  .000000000000E+00  .376200000000E+06
      .596010546875E+04 -.962581634521E-01  .000000000000E+00  .000000000000E+00
     -.207191914062E+05  .186896610260E+01 -.931322574615E-09  .000000000000E+00
      .136508706055E+05  .288220310211E+01 -.279396772385E-08  .000000000000E+00
E14 2019  5 23  8 20  0 -.577373546548E-03 -.145661260831E-10  .000000000000E+00
      .114000000000E+03  .965625000000E+01  .422981904608E-08 -.120626331597E+01
      .236555933952E-05  .166822214029E+00  .435672700405E-05  .528934523010E+04
      .375600000000E+06  .333413481712E-06  .243864663926E+01  .626221299171E-05
      .883276893331E+00  .264875000000E+03  .152636139412E+01 -.638026576368E-08
     -.127791037295E-08  .513000000000E+03  .205400000000E+04  .000000000000E+00
      .312000000000E+01  .390000000000E+03 -.512227416039E-08 -.605359673500E-08
      .376286000000E+06  .000000000000E+00
E 2 2019  5 23  8 20  0  .615008175373E-04  .167688085639E-11  .000000000000E+00
      .114000000000E+03  .135093750000E+03  .261439461432E-08  .238886972224E+00
      .637210905552E-05  .164219294675E-03  .841543078423E-05  .544061233521E+04
      .375600000000E+06  .428408384323E-07  .983249252141E+00  .260770320892E-07
      .988024640998E+00  .172968750000E+03  .916385235443E+00 -.525343311229E-08
     -.190007914592E-09  .513000000000E+03  .205400000000E+04  .000000000000E+00
      .312000000000E+01  .000000000000E+00 -.349245965481E-08 -.442378222942E-08
      .376286000000E+06  .000000000000E+00
E 7 2019  5 23  8 20  0 -.193006824702E-03 -.734701188776E-11  .000000000000E+00
      .114000000000E+03  .468750000000E+01  .365265214762E-08  .283156318812E+01
      .258907675743E-06  .428389408626E-03  .627897679806E-05  .544060823441E+04
      .375600000000E+06  .130385160446E-07 -.110989595158E+01  .689178705215E-07
      .952512140777E+00  .199187500000E+03 -.115232656652E+01 -.566666461076E-08
      .383587406527E-09  .513000000000E+03  .205400000000E+04  .000000000000E+00
      .312000000000E+01  .000000000000E+00  .279396772385E-08  .302679836750E-08
      .376286000000E+06  .000000000000E+00
E12 2019  5 23  8 20  0  .638266274473E-02 -.186304305316E-10  .000000000000E+00
      .114000000000E+03 -.122406250000E+03  .268475468795E-08  .159262393059E+01
     -.573880970478E-05  .452448148280E-03  .358186662197E-05  .544060621071E+04
      .375600000000E+06  .223517417908E-07  .306786540061E+01 -.875443220139E-07
      .984075351740E+00  .276093750000E+03 -.152195339227E+00 -.552844456762E-08
     -.108575951196E-09  .513000000000E+03  .205400000000E+04  .000000000000E+00
      .312000000000E+01  .000000000000E+00 -.123400241137E-07 -.125728547573E-07
      .376286000000E+06  .000000000000E+00
E36 2019  5 23  8 20  0  .708793348167E-03 -.473221462016E-11  .000000000000E+00
      .114000000000E+03 -.131718750000E+03  .261439461432E-08  .412139902458E+00
     -.602751970291E-05  .221799942665E-03  .412203371525E-05  .544060812378E+04
      .375600000000E+06  .242143869400E-07  .306287810953E+01 -.540167093277E-07
      .987300436569E+00  .263437500000E+03 -.555238474745E+00 -.553165898723E-08
     -.521450291926E-10  .513000000000E+03  .205400000000E+04  .000000000000E+00
      .312000000000E+01  .000000000000E+00  .372529029846E-08  .419095158577E-08
      .376286000000E+06  .000000000000E+00
E24 2019  5 23  8 20  0  .606686435640E-02 -.197957206183E-10  .000000000000E+00
      .114000000000E+03  .117093750000E+03  .255439211497E-08  .170969373190E+01
      .523217022419E-05  .483573181555E-03  .859238207340E-05  .544061355400E+04
      .375600000000E+06 -.204890966415E-07  .986514009845E+00  .111758708954E-07
      .985576340799E+00  .165687500000E+03  .101584680617E+01 -.526843373713E-08
     -.247510309798E-09  .513000000000E+03  .205400000000E+04  .000000000000E+00
      .312000000000E+01  .000000000000E+00  .458676367998E-07  .512227416039E-07
      .376288000000E+06  .000000000000E+00
C10 2019  5 23  8  0  0 -.777133973315E-03 -.345501405263E-10  .000000000000E+00
      .100000000000E+01  .488421875000E+03  .885751180806E-09 -.933282025571E+00
      .157221220434E-04  .575680076145E-02  .926805660129E-05  .649372798538E+04
      .374400000000E+06  .451691448689E-07  .115384644917E+01 -.158324837685E-07
      .910938902616E+00 -.474843750000E+02 -.269348934006E+01 -.195329564832E-08
     -.168221292806E-09  .000000000000E+00  .698000000000E+03  .100000000000E+01
      .200000000000E+01  .000000000000E+00  .510000000000E-08  .290000000000E-08
      .376530000000E+06  .000000000000E+00
